[{"OBJECT_NAME":"GNOMES-3","OBJECT_ID":"2022-033B","EPOCH":"2026-03-09T16:59:59.477856","MEAN_MOTION":14.84669331,"ECCENTRICITY":0.00095992,"INCLINATION":97.8285,"RA_OF_ASC_NODE":146.8032,"ARG_OF_PERICENTER":290.7124,"MEAN_ANOMALY":69.3062,"EPHEMERIS_TYPE":0,"CLASSIFICATION_TYPE":"U","NORAD_CAT_ID":52158,"ELEMENT_SET_NO":999,"REV_AT_EPOCH":21257,"BSTAR":0.00036144772,"MEAN_MOTION_DOT":3.007e-5,"MEAN_MOTION_DDOT":0},{"OBJECT_NAME":"IRIDIUM 33 DEB","OBJECT_ID":"1997-051AF","EPOCH":"2026-03-09T08:27:52.288992","MEAN_MOTION":14.71831263,"ECCENTRICITY":0.00509251,"INCLINATION":86.4129,"RA_OF_ASC_NODE":359.2718,"ARG_OF_PERICENTER":124.4308,"MEAN_ANOMALY":1.9699,"EPHEMERIS_TYPE":0,"CLASSIFICATION_TYPE":"U","NORAD_CAT_ID":33862,"ELEMENT_SET_NO":999,"REV_AT_EPOCH":90096,"BSTAR":0.002114831,"MEAN_MOTION_DOT":0.00013529,"MEAN_MOTION_DDOT":0}]
